[{"OBJECT_NAME":"STARLINK-5750","OBJECT_ID":"2023-020AB","EPOCH":"2026-03-09T22:00:01.999584","MEAN_MOTION":15.1157446,"ECCENTRICITY":0.00010799,"INCLINATION":42.9996,"RA_OF_ASC_NODE":2.8154,"ARG_OF_PERICENTER":239.6654,"MEAN_ANOMALY":3.4658,"EPHEMERIS_TYPE":0,"CLASSIFICATION_TYPE":"U","NORAD_CAT_ID":55594,"ELEMENT_SET_NO":999,"REV_AT_EPOCH":577,"BSTAR":0.070030439,"MEAN_MOTION_DOT":0.01312742,"MEAN_MOTION_DDOT":0},{"OBJECT_NAME":"IRIDE FM3","OBJECT_ID":"2025-276AH","EPOCH":"2026-03-09T16:50:39.561792","MEAN_MOTION":15.19640747,"ECCENTRICITY":6.614e-5,"INCLINATION":97.4248,"RA_OF_ASC_NODE":144.0388,"ARG_OF_PERICENTER":25.5203,"MEAN_ANOMALY":334.6065,"EPHEMERIS_TYPE":0,"CLASSIFICATION_TYPE":"U","NORAD_CAT_ID":66697,"ELEMENT_SET_NO":999,"REV_AT_EPOCH":1532,"BSTAR":0.00053468089,"MEAN_MOTION_DOT":0.00011338,"MEAN_MOTION_DDOT":0}]
